start=new Date('2023-06-01T00:00:00.000Z').valueOf();
sats=[{"CLASSIFICATION_TYPE":"U","NORAD_CAT_ID":"55933","PERIAPSIS":"356.796","OBJECT_NAME":"STARLINK-5852","GP_ID":"232929936","COUNTRY_CODE":"US","PERIOD":"91.725","BSTAR":"-0.00001745400000","INCLINATION":"69.9987","MEAN_ELEMENT_THEORY":"SGP4","MEAN_ANOMALY":"83.7608","FILE":"3922037","TIME_SYSTEM":"UTC","MEAN_MOTION_DDOT":"0.0000000000000","REF_FRAME":"TEME","MEAN_MOTION_DOT":"-0.00002310","MEAN_MOTION":"15.69917646","OBJECT_ID":"2023-037V","APOAPSIS":"361.473","ARG_OF_PERICENTER":"276.3192","EPOCH":"2023-05-31T21:49:57.628128","LAUNCH_DATE":"2023-03-17","DECAY_DATE":null,"OBJECT_TYPE":"PAYLOAD","SITE":"AFWTR","TLE_LINE1":"1 55933U 23037V   23151.90969477 -.00002310  00000-0 -17454-4 0  9996","RA_OF_ASC_NODE":"329.8110","RCS_SIZE":"LARGE","ECCENTRICITY":"0.00034710","EPHEMERIS_TYPE":"0","TLE_LINE2":"2 55933  69.9987 329.8110 0003471 276.3192  83.7608 15.69917646 11989","ELEMENT_SET_NO":"999","SEMIMAJOR_AXIS":"6737.270","CENTER_NAME":"EARTH","REV_AT_EPOCH":"1198"},{"RA_OF_ASC_NODE":"329.8060","RCS_SIZE":"LARGE","ECCENTRICITY":"0.00034730","TLE_LINE2":"2 55934  69.9960 329.8060 0003473 280.3854  79.6950 15.69927299 11986","EPHEMERIS_TYPE":"0","ELEMENT_SET_NO":"999","CENTER_NAME":"EARTH","SEMIMAJOR_AXIS":"6737.242","REV_AT_EPOCH":"1198","NORAD_CAT_ID":"55934","CLASSIFICATION_TYPE":"U","PERIAPSIS":"356.767","OBJECT_NAME":"STARLINK-5927","BSTAR":"0.00000227890000","PERIOD":"91.724","INCLINATION":"69.9960","GP_ID":"232930186","COUNTRY_CODE":"US","MEAN_ELEMENT_THEORY":"SGP4","MEAN_ANOMALY":"79.6950","FILE":"3922037","REF_FRAME":"TEME","MEAN_MOTION_DDOT":"0.0000000000000","TIME_SYSTEM":"UTC","MEAN_MOTION":"15.69927299","MEAN_MOTION_DOT":"0.00000061","APOAPSIS":"361.447","OBJECT_ID":"2023-037W","ARG_OF_PERICENTER":"280.3854","EPOCH":"2023-05-31T21:48:26.303328","LAUNCH_DATE":"2023-03-17","DECAY_DATE":null,"SITE":"AFWTR","OBJECT_TYPE":"PAYLOAD","TLE_LINE1":"1 55934U 23037W   23151.90863777  .00000061  00000-0  22789-5 0  9990"},{"TLE_LINE1":"1 55935U 23037X   23151.90916964  .00000466  00000-0  56471-5 0  9992","OBJECT_TYPE":"PAYLOAD","SITE":"AFWTR","DECAY_DATE":null,"LAUNCH_DATE":"2023-03-17","EPOCH":"2023-05-31T21:49:12.256896","ARG_OF_PERICENTER":"285.1269","OBJECT_ID":"2023-037X","APOAPSIS":"360.994","MEAN_MOTION_DOT":"0.00000466","MEAN_MOTION":"15.69922825","TIME_SYSTEM":"UTC","REF_FRAME":"TEME","MEAN_MOTION_DDOT":"0.0000000000000","FILE":"3922037","MEAN_ANOMALY":"74.9619","MEAN_ELEMENT_THEORY":"SGP4","COUNTRY_CODE":"US","GP_ID":"232930438","PERIOD":"91.724","INCLINATION":"69.9968","BSTAR":"0.00000564710000","OBJECT_NAME":"STARLINK-5920","PERIAPSIS":"357.245","CLASSIFICATION_TYPE":"U","NORAD_CAT_ID":"55935","REV_AT_EPOCH":"1198","SEMIMAJOR_AXIS":"6737.255","CENTER_NAME":"EARTH","ELEMENT_SET_NO":"999","EPHEMERIS_TYPE":"0","TLE_LINE2":"2 55935  69.9968 329.8075 0002782 285.1269  74.9619 15.69922825 11986","ECCENTRICITY":"0.00027820","RCS_SIZE":"LARGE","RA_OF_ASC_NODE":"329.8075"},{"REV_AT_EPOCH":"1198","ELEMENT_SET_NO":"999","SEMIMAJOR_AXIS":"6737.215","CENTER_NAME":"EARTH","EPHEMERIS_TYPE":"0","TLE_LINE2":"2 55936  69.9985 329.7958 0003939 275.0609  85.0137 15.69936873 11982","ECCENTRICITY":"0.00039390","RA_OF_ASC_NODE":"329.7958","RCS_SIZE":"LARGE","DECAY_DATE":null,"LAUNCH_DATE":"2023-03-17","TLE_LINE1":"1 55936U 23037Y   23151.90599568  .00002388  00000-0  21610-4 0  9991","OBJECT_TYPE":"PAYLOAD","SITE":"AFWTR","OBJECT_ID":"2023-037Y","APOAPSIS":"361.733","MEAN_MOTION_DOT":"0.00002388","MEAN_MOTION":"15.69936873","EPOCH":"2023-05-31T21:44:38.026752","ARG_OF_PERICENTER":"275.0609","MEAN_ELEMENT_THEORY":"SGP4","MEAN_ANOMALY":"85.0137","COUNTRY_CODE":"US","GP_ID":"232930689","PERIOD":"91.723","INCLINATION":"69.9985","BSTAR":"0.00002161000000","TIME_SYSTEM":"UTC","MEAN_MOTION_DDOT":"0.0000000000000","REF_FRAME":"TEME","FILE":"3922037","PERIAPSIS":"356.426","CLASSIFICATION_TYPE":"U","NORAD_CAT_ID":"55936","OBJECT_NAME":"STARLINK-5882"},{"FILE":"3922037","MEAN_MOTION_DDOT":"0.0000000000000","REF_FRAME":"TEME","TIME_SYSTEM":"UTC","PERIOD":"91.724","INCLINATION":"69.9972","BSTAR":"0.00000507270000","GP_ID":"232929437","COUNTRY_CODE":"US","MEAN_ELEMENT_THEORY":"SGP4","MEAN_ANOMALY":"86.8588","OBJECT_NAME":"STARLINK-5913","NORAD_CAT_ID":"55937","CLASSIFICATION_TYPE":"U","PERIAPSIS":"356.861","SITE":"AFWTR","OBJECT_TYPE":"PAYLOAD","TLE_LINE1":"1 55937U 23037Z   23151.90905937  .00000397  00000-0  50727-5 0  9993","LAUNCH_DATE":"2023-03-17","DECAY_DATE":null,"ARG_OF_PERICENTER":"273.2225","EPOCH":"2023-05-31T21:49:02.729568","MEAN_MOTION":"15.69925151","MEAN_MOTION_DOT":"0.00000397","APOAPSIS":"361.365","OBJECT_ID":"2023-037Z","ECCENTRICITY":"0.00033430","TLE_LINE2":"2 55937  69.9972 329.8079 0003343 273.2225  86.8588 15.69925151 11983","EPHEMERIS_TYPE":"0","RCS_SIZE":"LARGE","RA_OF_ASC_NODE":"329.8079","REV_AT_EPOCH":"1198","CENTER_NAME":"EARTH","SEMIMAJOR_AXIS":"6737.248","ELEMENT_SET_NO":"999"},{"TLE_LINE2":"2 55938  69.9963 329.8071 0003902 273.9542  86.1207 15.69929207 11983","EPHEMERIS_TYPE":"0","ECCENTRICITY":"0.00039020","RCS_SIZE":"LARGE","RA_OF_ASC_NODE":"329.8071","REV_AT_EPOCH":"1198","CENTER_NAME":"EARTH","SEMIMAJOR_AXIS":"6737.237","ELEMENT_SET_NO":"999","REF_FRAME":"TEME","MEAN_MOTION_DDOT":"0.0000000000000","TIME_SYSTEM":"UTC","FILE":"3922037","MEAN_ANOMALY":"86.1207","MEAN_ELEMENT_THEORY":"SGP4","PERIOD":"91.724","BSTAR":"0.00000298200000","INCLINATION":"69.9963","GP_ID":"232929687","COUNTRY_CODE":"US","OBJECT_NAME":"STARLINK-5909","PERIAPSIS":"356.473","NORAD_CAT_ID":"55938","CLASSIFICATION_TYPE":"U","TLE_LINE1":"1 55938U 23037AA  23151.90895153  .00000145  00000-0  29820-5 0  9993","SITE":"AFWTR","OBJECT_TYPE":"PAYLOAD","DECAY_DATE":null,"LAUNCH_DATE":"2023-03-17","EPOCH":"2023-05-31T21:48:53.412192","ARG_OF_PERICENTER":"273.9542","APOAPSIS":"361.730","OBJECT_ID":"2023-037AA","MEAN_MOTION_DOT":"0.00000145","MEAN_MOTION":"15.69929207"},{"SITE":"AFWTR","OBJECT_TYPE":"PAYLOAD","TLE_LINE1":"1 55939U 23037AB  23151.90874390 -.00000843  00000-0 -52441-5 0  9996","LAUNCH_DATE":"2023-03-17","DECAY_DATE":null,"ARG_OF_PERICENTER":"269.1312","EPOCH":"2023-05-31T21:48:35.472960","MEAN_MOTION_DOT":"-0.00000843","MEAN_MOTION":"15.69920952","APOAPSIS":"361.501","OBJECT_ID":"2023-037AB","FILE":"3922037","REF_FRAME":"TEME","MEAN_MOTION_DDOT":"0.0000000000000","TIME_SYSTEM":"UTC","BSTAR":"-0.00000524410000","PERIOD":"91.724","INCLINATION":"69.9985","GP_ID":"232930938","COUNTRY_CODE":"US","MEAN_ELEMENT_THEORY":"SGP4","MEAN_ANOMALY":"90.9479","OBJECT_NAME":"STARLINK-5918","NORAD_CAT_ID":"55939","CLASSIFICATION_TYPE":"U","PERIAPSIS":"356.749","REV_AT_EPOCH":"1198","CENTER_NAME":"EARTH","SEMIMAJOR_AXIS":"6737.260","ELEMENT_SET_NO":"999","ECCENTRICITY":"0.00035270","TLE_LINE2":"2 55939  69.9985 329.8064 0003527 269.1312  90.9479 15.69920952 11987","EPHEMERIS_TYPE":"0","RCS_SIZE":"LARGE","RA_OF_ASC_NODE":"329.8064"},{"ELEMENT_SET_NO":"999","CENTER_NAME":"EARTH","SEMIMAJOR_AXIS":"6737.266","REV_AT_EPOCH":"1198","RCS_SIZE":"LARGE","RA_OF_ASC_NODE":"329.8064","TLE_LINE2":"2 55940  69.9982 329.8064 0003738 277.8823  82.1948 15.69918805 11981","EPHEMERIS_TYPE":"0","ECCENTRICITY":"0.00037380","APOAPSIS":"361.650","OBJECT_ID":"2023-037AC","MEAN_MOTION_DOT":"-0.00001657","MEAN_MOTION":"15.69918805","EPOCH":"2023-05-31T21:48:44.631360","ARG_OF_PERICENTER":"277.8823","DECAY_DATE":null,"LAUNCH_DATE":"2023-03-17","TLE_LINE1":"1 55940U 23037AC  23151.90884990 -.00001657  00000-0 -12017-4 0  9993","SITE":"AFWTR","OBJECT_TYPE":"PAYLOAD","PERIAPSIS":"356.613","NORAD_CAT_ID":"55940","CLASSIFICATION_TYPE":"U","OBJECT_NAME":"STARLINK-5864","MEAN_ANOMALY":"82.1948","MEAN_ELEMENT_THEORY":"SGP4","BSTAR":"-0.00001201700000","PERIOD":"91.724","INCLINATION":"69.9982","GP_ID":"232931189","COUNTRY_CODE":"US","REF_FRAME":"TEME","MEAN_MOTION_DDOT":"0.0000000000000","TIME_SYSTEM":"UTC","FILE":"3922037"},{"REV_AT_EPOCH":"1198","SEMIMAJOR_AXIS":"6737.206","CENTER_NAME":"EARTH","ELEMENT_SET_NO":"999","ECCENTRICITY":"0.00033080","EPHEMERIS_TYPE":"0","TLE_LINE2":"2 55941  69.9972 329.8087 0003308 271.7434  88.3383 15.69939729 11989","RA_OF_ASC_NODE":"329.8087","RCS_SIZE":"LARGE","OBJECT_TYPE":"PAYLOAD","SITE":"AFWTR","TLE_LINE1":"1 55941U 23037AD  23151.90957941 -.00000946  00000-0 -60949-5 0  9999","LAUNCH_DATE":"2023-03-17","DECAY_DATE":null,"ARG_OF_PERICENTER":"271.7434","EPOCH":"2023-05-31T21:49:47.661024","MEAN_MOTION_DOT":"-0.00000946","MEAN_MOTION":"15.69939729","OBJECT_ID":"2023-037AD","APOAPSIS":"361.300","FILE":"3922037","TIME_SYSTEM":"UTC","REF_FRAME":"TEME","MEAN_MOTION_DDOT":"0.0000000000000","GP_ID":"232929937","COUNTRY_CODE":"US","PERIOD":"91.723","INCLINATION":"69.9972","BSTAR":"-0.00000609490000","MEAN_ANOMALY":"88.3383","MEAN_ELEMENT_THEORY":"SGP4","OBJECT_NAME":"STARLINK-5914","CLASSIFICATION_TYPE":"U","NORAD_CAT_ID":"55941","PERIAPSIS":"356.843"},{"RCS_SIZE":"LARGE","RA_OF_ASC_NODE":"329.8027","TLE_LINE2":"2 55942  69.9975 329.8027 0003810 274.6833  85.3928 15.69924459 11986","EPHEMERIS_TYPE":"0","ECCENTRICITY":"0.00038100","CENTER_NAME":"EARTH","SEMIMAJOR_AXIS":"6737.250","ELEMENT_SET_NO":"999","REV_AT_EPOCH":"1198","OBJECT_NAME":"STARLINK-5917","PERIAPSIS":"356.548","NORAD_CAT_ID":"55942","CLASSIFICATION_TYPE":"U","MEAN_MOTION_DDOT":"0.0000000000000","REF_FRAME":"TEME","TIME_SYSTEM":"UTC","FILE":"3922037","MEAN_ELEMENT_THEORY":"SGP4","MEAN_ANOMALY":"85.3928","PERIOD":"91.724","BSTAR":"-0.00000336620000","INCLINATION":"69.9975","COUNTRY_CODE":"US","GP_ID":"232930187","EPOCH":"2023-05-31T21:47:40.580448","ARG_OF_PERICENTER":"274.6833","APOAPSIS":"361.682","OBJECT_ID":"2023-037AE","MEAN_MOTION_DOT":"-0.00000618","MEAN_MOTION":"15.69924459","TLE_LINE1":"1 55942U 23037AE  23151.90810857 -.00000618  00000-0 -33662-5 0  9992","SITE":"AFWTR","OBJECT_TYPE":"PAYLOAD","DECAY_DATE":null,"LAUNCH_DATE":"2023-03-17"}];
